ONEWEB-0693             
1 61601U 24188H   24313.82499326  .00006306  00000+0  77231-3 0  9990
2 61601  86.5715 162.0865 0002933 123.6652 236.4851 14.83038983  4086
ONEWEB-0695             
1 61602U 24188J   24313.82586236  .00006110  00000+0  75107-3 0  9991
2 61602  86.5773 162.0999 0003095 120.4026 239.7503 14.82886110  4115
ONEWEB-0697             
1 61603U 24188K   24313.82712627  .00006150  00000+0  75724-3 0  9996
2 61603  86.5725 162.0889 0002808 134.0733 226.0721 14.82817817  4140
ONEWEB-0698             
1 61604U 24188L   24313.83335648 -.00002795  00000+0 -34903-3 0  9999
2 61604  86.5802 162.0708 0006175 138.5404 326.3879 14.82863134  3917
ONEWEB-0699             
1 61605U 24188M   24312.88621839  .00006169  00000+0  76508-3 0  9998
2 61605  86.5762 162.5065 0001830 143.2334 216.9014 14.82519242  5737
ONEWEB-0700             
1 61606U 24188N   24313.82495868  .00006040  00000+0  74405-3 0  9997
2 61606  86.5739 162.0877 0002979 126.5318 233.6179 14.82794515  4059
ONEWEB-0701             
1 61607U 24188P   24313.81917454  .00001273  00000+0  15386-3 0  9993
2 61607  86.5795 162.0920 0005087 129.1687 230.9989 14.82887558  4196
ONEWEB-0702             
1 61608U 24188Q   24313.83335648 -.00002803  00000+0 -35271-3 0  9992
2 61608  86.5823 162.0729 0006217 138.4398 318.9401 14.82544950  3959
ONEWEB-0704             
1 61609U 24188R   24313.83064479  .00006002  00000+0  74631-3 0  9990
2 61609  86.5787 162.1036 0002227 138.9861 221.1530 14.82406505  4017
ONEWEB-0705             
1 61610U 24188S   24313.48115105  .00005987  00000+0  73520-3 0  9993
2 61610  86.5798 162.2374 0005233 129.7790 230.3894 14.82915151  4091
ONEWEB-0706             
1 61611U 24188T   24313.83335648 -.00002710  00000+0 -33923-3 0  9995
2 61611  86.5816 162.0817 0005792 136.4331 317.1170 14.82779409  3970
ONEWEB-0707             
1 61612U 24188U   24313.82777402  .00006035  00000+0  74326-3 0  9997
2 61612  86.5770 162.1016 0002766 135.6366 224.5079 14.82801773  3912
ONEWEB-0708             
1 61613U 24188V   24313.41862538  .00006214  00000+0  76454-3 0  9991
2 61613  86.5757 162.2641 0003585 128.3065 231.8481 14.82846417  4089
2024-189A               
1 61614U 24189A   24313.78488101  .00013843  00000+0  10803-2 0  9994
2 61614  97.6317 338.4007 0009698 198.5008 161.5865 15.01222962  2667
2024-189B               
1 61615U 24189B   24313.78518769  .00008612  00000+0  67699-3 0  9993
2 61615  97.6313 338.3998 0010681 214.1954 145.8584 15.01061503  2633
2024-189C               
1 61616U 24189C   24313.78482975  .00008608  00000+0  67642-3 0  9996
2 61616  97.6305 338.3978 0010056 250.1101 109.9040 15.01084503  2636
2024-190A               
1 61617U 24190A   24313.17197554 -.00017050  00000+0 -69837-3 0  9999
2 61617  34.9915 283.5260 0004085  77.2480  34.0300 15.23446739  2461
2024-190B               
1 61618U 24190B   24313.61153674  .00031072  00000+0  12838-2 0  9990
2 61618  34.9888 280.7753 0003930 106.5189 253.5957 15.23050352  2533
2024-190C               
1 61619U 24190C   24313.61092444  .00010976  00000+0  45391-3 0  9999
2 61619  34.9978 280.7746 0005890  75.8120 284.3249 15.23177121  2491
CZ-2C R/B               
1 61620U 24190D   24313.29532352  .00938081  11786-5  12369-2 0  9995
2 61620  35.0069 274.0658 0142560 184.7403 175.1986 15.88940886  2496
STARLINK-32302          
1 61621U 24191A   24313.83335648 -.01351390  00000+0 -12683-1 0  9990
2 61621  43.0003  38.9319 0001791 284.2618  75.6628 15.69200335  3753
STARLINK-32364          
1 61622U 24191B   24313.83335648 -.01347107  00000+0 -12640-1 0  9995
2 61622  43.0002  38.9208 0001715 282.5601  81.2003 15.69196992  3695
STARLINK-32331          
1 61623U 24191C   24313.83335648 -.01351902  00000+0 -12688-1 0  9996
2 61623  43.0003  38.9264 0001835 283.8468  77.9947 15.69200644  3641
STARLINK-32398          
1 61624U 24191D   24313.83335648 -.01346580  00000+0 -12635-1 0  9995
2 61624  43.0002  38.9161 0001654 284.4114  81.2660 15.69196577  3695
STARLINK-32365          
1 61625U 24191E   24313.83335648 -.01346680  00000+0 -12636-1 0  9998
2 61625  43.0003  38.9110 0001667 283.8522  83.7422 15.69196557  3748
STARLINK-32333          
1 61626U 24191F   24313.83335648 -.01351379  00000+0 -12683-1 0  9992
2 61626  43.0002  38.8966 0001787 283.8276  89.5158 15.69200158  3692
STARLINK-32399          
1 61627U 24191G   24313.83335648 -.01347089  00000+0 -12640-1 0  9999
2 61627  43.0003  38.9062 0001696 282.6163  86.8950 15.69196848  3648
STARLINK-32421          
1 61628U 24191H   24313.83335648 -.01347274  00000+0 -12642-1 0  9998
2 61628  43.0002  38.9013 0001684 282.3009  89.1274 15.69196867  3700
STARLINK-32403          
1 61629U 24191J   24313.83335648 -.01346944  00000+0 -12639-1 0  9998
2 61629  43.0002  38.8914 0001619 283.2982  91.9639 15.69196649  3690
STARLINK-32390          
1 61630U 24191K   24313.83335648 -.01346865  00000+0 -12638-1 0  9991
2 61630  43.0002  38.8866 0001647 284.1514  93.0276 15.69196661  3649
STARLINK-32348          
1 61631U 24191L   24313.83335648 -.01350647  00000+0 -12676-1 0  9997
2 61631  43.0002  38.8813 0001698 286.2164  92.8778 15.69199749  3691
STARLINK-32455          
1 61632U 24191M   24313.83335648 -.01350834  00000+0 -12678-1 0  9998
2 61632  43.0002  38.8768 0001702 284.5189  96.4925 15.69199652  3704
STARLINK-32396          
1 61633U 24191N   24313.83335648 -.01351373  00000+0 -12683-1 0  9994
2 61633  43.0002  38.8716 0001787 284.8407  98.0874 15.69200055  3708
STARLINK-32355          
1 61634U 24191P   24313.50002315 -.01353907  00000+0 -12207-1 0  9998
2 61634  43.0001  40.8740 0001516 283.1844  15.7764 15.70163509  3635
STARLINK-32370          
1 61635U 24191Q   24313.83335648 -.01350789  00000+0 -12677-1 0  9999
2 61635  43.0002  38.8616 0001778 286.8985  99.8633 15.69199824  3693
STARLINK-32405          
1 61636U 24191R   24313.50002315 -.01352206  00000+0 -12189-1 0  9990
2 61636  43.0000  40.8638 0001686 272.4607  30.3340 15.70163205  3634
STARLINK-32419          
1 61637U 24191S   24313.50002315 -.01354322  00000+0 -12211-1 0  9998
2 61637  43.0000  40.8595 0001506 279.9682  24.7437 15.70164030  3645
STARLINK-32320          
1 61638U 24191T   24313.50002315 -.01353907  00000+0 -12207-1 0  9992
2 61638  42.9999  40.8544 0001521 280.7559  25.8728 15.70163454  3694
STARLINK-32341          
1 61639U 24191U   24313.50002315 -.01355353  00000+0 -12221-1 0  9996
2 61639  43.0000  40.8496 0001490 275.2211  33.3243 15.70165070  3631
STARLINK-32339          
1 61640U 24191V   24313.50002315 -.01354149  00000+0 -12209-1 0  9996
2 61640  42.9999  40.8396 0001567 280.3968  31.9824 15.70163862  3645
STARLINK-32327          
1 61641U 24191W   24313.50002315 -.01354264  00000+0 -12210-1 0  9997
2 61641  42.9999  40.8447 0001544 275.1585  35.3040 15.70164415  3637
STARLINK-32264          
1 61642U 24191X   24313.50002315 -.01354418  00000+0 -12212-1 0  9991
2 61642  42.9999  40.8306 0001517 282.0157  34.1974 15.70163857  3636
STARLINK-32337          
1 61643U 24191Y   24313.50002315 -.01352840  00000+0 -12195-1 0  9999
2 61643  43.0000  40.8353 0001683 272.2363  42.0597 15.70164061  3691
STARLINK-32238          
1 61661U 24193A   24313.50002315 -.01357013  00000+0 -10843-1 0  9996
2 61661  53.1561 196.2761 0000927  83.4528 182.5537 15.73233348  3118
STARLINK-32310          
1 61662U 24193B   24313.83335648 -.01304410  00000+0 -10914-1 0  9993
2 61662  53.1571 194.6226 0001067 112.4241 243.7566 15.72050980  3276
STARLINK-32308          
1 61663U 24193C   24313.83335648 -.01394571  00000+0 -11661-1 0  9991
2 61663  53.1568 194.6182 0000587  73.5781 284.6326 15.72262221  3165
STARLINK-32301          
1 61664U 24193D   24313.50002315 -.01351928  00000+0 -10799-1 0  9998
2 61664  53.1560 196.2600 0000941 114.5165 159.1574 15.73229736  3118
STARLINK-32439          
1 61665U 24193E   24313.50002315 -.01354102  00000+0 -10819-1 0  9999
2 61665  53.1562 196.2640 0000692  74.2520 197.5049 15.73231033  3166
STARLINK-32428          
1 61666U 24193F   24313.83335648 -.01404786  00000+0 -11754-1 0  9997
2 61666  53.1573 194.6061 0000481  90.6594 273.2972 15.72270140  3266
STARLINK-32414          
1 61667U 24193G   24313.83335648 -.01405116  00000+0 -11757-1 0  9999
2 61667  53.1571 194.6024 0000501  89.2847 276.5885 15.72270199  3265
STARLINK-32441          
1 61668U 24193H   24313.83335648 -.01406707  00000+0 -11771-1 0  9993
2 61668  53.1570 194.5984 0000590 101.4355 266.3536 15.72271412  3212
STARLINK-32400          
1 61669U 24193J   24313.83335648 -.01407764  00000+0 -11780-1 0  9998
2 61669  53.1570 194.5941 0000729 100.9121 268.7935 15.72272039  3265
STARLINK-32449          
1 61670U 24193K   24313.83335648 -.01405346  00000+0 -11759-1 0  9990
2 61670  53.1569 194.5908 0000478  97.6249 273.9972 15.72270740  3213
STARLINK-32453          
1 61671U 24193L   24313.83335648 -.01404646  00000+0 -11753-1 0  9997
2 61671  53.1569 194.5868 0000421  84.3035 289.2355 15.72270055  3217
STARLINK-32443          
1 61672U 24193M   24313.83335648 -.01410543  00000+0 -11804-1 0  9998
2 61672  53.1571 194.5829 0000994  94.4032 281.0510 15.72273911  3219
STARLINK-32417          
1 61673U 24193N   24313.83335648 -.01406952  00000+0 -11773-1 0  9993
2 61673  53.1553 194.5790 0000661 102.3149 275.0568 15.72271311  3269
STARLINK-32326          
1 61674U 24193P   24313.83335648 -.01409943  00000+0 -11799-1 0  9995
2 61674  53.1550 194.5747 0000941  89.8494 289.4382 15.72273060  3178
STARLINK-32294          
1 61675U 24193Q   24313.83335648 -.01406394  00000+0 -11768-1 0  9999
2 61675  53.1557 194.5705 0000700  87.0853 294.1201 15.72270410  3261
